
  {"cities":[{"id":"2078","name":"阿坝州","pinyin":"abazhou","longitude":102.224776,"latitude":31.899363},{"id":"2179","name":"定安县","pinyin":"andingxian","longitude":110.32851,"latitude":19.697207},{"id":"68","name":"安庆","pinyin":"anqing","longitude":117.056857,"latitude":30.524895},{"id":"255","name":"鞍山","pinyin":"anshan","longitude":122.994646,"latitude":41.108546},{"id":"304","name":"安顺","pinyin":"anshun","longitude":105.947594,"latitude":26.253072},{"id":"69","name":"安阳","pinyin":"anyang","longitude":114.392756,"latitude":36.097593},{"id":"35","name":"澳门","pinyin":"aomen","longitude":113.543873,"latitude":22.198745},{"id":"375","name":"白城","pinyin":"baicheng","longitude":122.839024,"latitude":45.619641},{"id":"2107","name":"百色","pinyin":"baise","longitude":106.618141,"latitude":23.902243},{"id":"369","name":"白山","pinyin":"baishan","longitude":126.423587,"latitude":41.939994},{"id":"2175","name":"白沙县","pinyin":"baishaxian","longitude":109.451495,"latitude":19.224872},{"id":"2468","name":"白银","pinyin":"baiyin","longitude":104.137619,"latitude":36.544801},{"id":"248","name":"保定","pinyin":"baoding","longitude":115.46463,"latitude":38.873972},{"id":"422","name":"宝鸡","pinyin":"baoji","longitude":107.1339,"latitude":34.372436},{"id":"2060","name":"保山","pinyin":"baoshan","longitude":99.161482,"latitude":25.112036},{"id":"2178","name":"保亭县","pinyin":"baotingxian","longitude":109.70259,"latitude":18.63912},{"id":"246","name":"包头","pinyin":"baotou","longitude":109.840386,"latitude":40.657447},{"id":"2132","name":"巴彦淖尔","pinyin":"bayannaoer","longitude":107.387646,"latitude":40.743221},{"id":"310","name":"北海","pinyin":"beihai","longitude":109.119899,"latitude":21.481217},{"id":"1","name":"北京","pinyin":"beijing","longitude":116.394997,"latitude":39.925487},{"id":"249","name":"蚌埠","pinyin":"bengbu","longitude":117.389719,"latitude":32.916287},{"id":"389","name":"本溪","pinyin":"benxi","longitude":123.766485,"latitude":41.294176},{"id":"2428","name":"毕节","pinyin":"bijie","longitude":105.284035,"latitude":27.302456},{"id":"2138","name":"滨州","pinyin":"binzhou","longitude":117.970698,"latitude":37.381866},{"id":"277","name":"亳州","pinyin":"bozhou","longitude":115.778676,"latitude":33.844582},{"id":"321","name":"沧州","pinyin":"cangzhou","longitude":116.83884,"latitude":38.304449},{"id":"2176","name":"昌江县","pinyin":"chagnjiangxian","longitude":109.054126,"latitude":19.260278},{"id":"21","name":"长春","pinyin":"changchun","longitude":125.323542,"latitude":43.817084},{"id":"323","name":"常德","pinyin":"changde","longitude":111.698497,"latitude":29.031673},{"id":"19","name":"长沙","pinyin":"changsha","longitude":112.938814,"latitude":28.228209},{"id":"361","name":"常熟","pinyin":"changshu","longitude":120.752507,"latitude":31.653584},{"id":"396","name":"长治","pinyin":"changzhi","longitude":113.116255,"latitude":36.195386},{"id":"16","name":"常州","pinyin":"changzhou","longitude":119.974454,"latitude":31.810077},{"id":"279","name":"巢湖","pinyin":"chaohu","longitude":117.864722,"latitude":31.597853},{"id":"289","name":"潮州","pinyin":"chaozhou","longitude":116.622597,"latitude":23.656972},{"id":"314","name":"承德","pinyin":"chengde","longitude":117.943621,"latitude":40.978744},{"id":"13","name":"成都","pinyin":"chengdu","longitude":104.064856,"latitude":30.658601},{"id":"2177","name":"澄迈县","pinyin":"chengmaixian","longitude":110.006798,"latitude":19.738521},{"id":"325","name":"郴州","pinyin":"chenzhou","longitude":113.014718,"latitude":25.77051},{"id":"392","name":"赤峰","pinyin":"chifeng","longitude":118.886856,"latitude":42.257817},{"id":"273","name":"池州","pinyin":"chizhou","longitude":117.495707,"latitude":30.674219},{"id":"6","name":"重庆","pinyin":"chongqing","longitude":106.551557,"latitude":29.56301},{"id":"280","name":"滁州","pinyin":"chuzhou","longitude":118.317107,"latitude":32.301556},{"id":"295","name":"从化","pinyin":"conghua","longitude":113.586365,"latitude":23.548404},{"id":"437","name":"大理","pinyin":"dali","longitude":100.267638,"latitude":25.606486},{"id":"11","name":"大连","pinyin":"dalian","longitude":121.614677,"latitude":38.914024},{"id":"385","name":"丹东","pinyin":"dandong","longitude":124.384913,"latitude":40.127344},{"id":"363","name":"丹阳","pinyin":"danyang","longitude":119.606505,"latitude":32.00864},{"id":"2181","name":"儋州市","pinyin":"danzhou","longitude":109.580822,"latitude":19.521134},{"id":"15","name":"大庆","pinyin":"daqing","longitude":125.104637,"latitude":46.59019},{"id":"257","name":"大同","pinyin":"datong","longitude":113.300126,"latitude":40.076816},{"id":"2024","name":"德阳","pinyin":"deyang","longitude":104.398042,"latitude":31.126856},{"id":"403","name":"德州","pinyin":"dezhou","longitude":116.302595,"latitude":37.450919},{"id":"316","name":"定州","pinyin":"dingzhou","longitude":114.990251,"latitude":38.516168},{"id":"2115","name":"迪庆州","pinyin":"diqingzhou","longitude":99.702223,"latitude":27.818863},{"id":"2180","name":"东方市","pinyin":"dongfangshi","longitude":108.651775,"latitude":19.095341},{"id":"54","name":"东莞","pinyin":"dongguan","longitude":113.751765,"latitude":23.020536},{"id":"445","name":"东阳","pinyin":"dongyang","longitude":120.241561,"latitude":29.289634},{"id":"37","name":"东营","pinyin":"dongying","longitude":118.674767,"latitude":37.434751},{"id":"2219","name":"都江堰","pinyin":"dujiangyan","longitude":103.646978,"latitude":30.988315},{"id":"373","name":"敦化","pinyin":"dunhua","longitude":128.232013,"latitude":43.372413},{"id":"309","name":"敦煌","pinyin":"dunhuang","longitude":94.661881,"latitude":40.14213},{"id":"391","name":"鄂尔多斯","pinyin":"eerduosi","longitude":109.781327,"latitude":39.608266},{"id":"416","name":"峨眉山","pinyin":"emeishan","longitude":103.484614,"latitude":29.601212},{"id":"2072","name":"恩施","pinyin":"enshi","longitude":109.488102,"latitude":30.2721},{"id":"334","name":"鄂州","pinyin":"ezhou","longitude":114.894843,"latitude":30.39194},{"id":"71","name":"佛山","pinyin":"foshan","longitude":113.121416,"latitude":23.021548},{"id":"256","name":"抚顺","pinyin":"fushun","longitude":123.957208,"latitude":41.880872},{"id":"2083","name":"阜新","pinyin":"fuxin","longitude":121.670497,"latitude":42.021491},{"id":"271","name":"阜阳","pinyin":"fuyangah","longitude":115.814144,"latitude":32.890124},{"id":"448","name":"富阳","pinyin":"fuyangzj","longitude":119.96017,"latitude":30.048838},{"id":"14","name":"福州","pinyin":"fuzhou","longitude":119.296494,"latitude":26.074508},{"id":"2259","name":"抚州","pinyin":"fuzhoushi","longitude":116.358182,"latitude":27.949103},{"id":"377","name":"赣州","pinyin":"ganzhou","longitude":114.933553,"latitude":25.829209},{"id":"2310","name":"广安","pinyin":"guangan","longitude":106.633314,"latitude":30.455879},{"id":"5","name":"广州","pinyin":"guangzhou","longitude":113.264435,"latitude":23.129163},{"id":"66","name":"桂林","pinyin":"guilin","longitude":110.290195,"latitude":25.273566},{"id":"38","name":"贵阳","pinyin":"guiyang","longitude":106.630104,"latitude":26.647481},{"id":"33","name":"哈尔滨","pinyin":"haerbin","longitude":126.534967,"latitude":45.803775},{"id":"2459","name":"海北州","pinyin":"haibeizhou","longitude":100.900931,"latitude":36.954273},{"id":"387","name":"海城","pinyin":"haicheng","longitude":122.685217,"latitude":40.882377},{"id":"2458","name":"海东","pinyin":"haidong","longitude":102.10433,"latitude":36.502225},{"id":"65","name":"海口","pinyin":"haikou","longitude":110.328873,"latitude":20.030765},{"id":"449","name":"海宁","pinyin":"haining","longitude":120.680748,"latitude":30.510664},{"id":"260","name":"邯郸","pinyin":"handan","longitude":114.492968,"latitude":36.612267},{"id":"10","name":"杭州","pinyin":"hangzhou","longitude":120.155069,"latitude":30.274089},{"id":"420","name":"汉中","pinyin":"hanzhong","longitude":107.023329,"latitude":33.067915},{"id":"2036","name":"鹤壁","pinyin":"hebi","longitude":114.297273,"latitude":35.747225},{"id":"20","name":"合肥","pinyin":"hefei","longitude":117.227271,"latitude":31.821448},{"id":"343","name":"黑河","pinyin":"heihe","longitude":127.52846,"latitude":50.245297},{"id":"39","name":"衡阳","pinyin":"hengyang","longitude":112.5719,"latitude":26.89384},{"id":"315","name":"衡水","pinyin":"henshui","longitude":115.69868,"latitude":37.735302},{"id":"293","name":"河源","pinyin":"heyuan","longitude":114.70045,"latitude":23.743538},{"id":"412","name":"菏泽","pinyin":"heze","longitude":115.480656,"latitude":35.23375},{"id":"294","name":"花都","pinyin":"huadu","longitude":113.337232,"latitude":23.473191},{"id":"358","name":"淮安","pinyin":"huaian","longitude":119.015288,"latitude":33.61036},{"id":"278","name":"淮北","pinyin":"huaibei","longitude":116.798265,"latitude":33.955845},{"id":"326","name":"怀化","pinyin":"huaihua","longitude":109.998488,"latitude":27.554978},{"id":"270","name":"淮南","pinyin":"huainan","longitude":116.999933,"latitude":32.625478},{"id":"2069","name":"黄冈","pinyin":"huanggang","longitude":114.872402,"latitude":30.453906},{"id":"272","name":"黄山","pinyin":"huangshan","longitude":118.337476,"latitude":29.714683},{"id":"333","name":"黄石","pinyin":"huangshi","longitude":115.03852,"latitude":30.199652},{"id":"64","name":"呼和浩特","pinyin":"huhehaote","longitude":111.748847,"latitude":40.84231},{"id":"287","name":"惠州","pinyin":"huizhou","longitude":114.416196,"latitude":23.111847},{"id":"73","name":"葫芦岛","pinyin":"huludao","longitude":120.836827,"latitude":40.710953},{"id":"2211","name":"呼伦贝尔","pinyin":"hulunbeier","longitude":119.765715,"latitude":49.211498},{"id":"443","name":"湖州","pinyin":"huzhou","longitude":120.086818,"latitude":30.89436},{"id":"341","name":"佳木斯","pinyin":"jiamusi","longitude":130.318917,"latitude":46.799923},{"id":"447","name":"建德","pinyin":"jiande","longitude":119.281159,"latitude":29.474817},{"id":"285","name":"江门","pinyin":"jiangmen","longitude":113.081831,"latitude":22.578723},{"id":"364","name":"江阴","pinyin":"jiangyin","longitude":120.284946,"latitude":31.920673},{"id":"366","name":"集安","pinyin":"jianjl","longitude":126.184073,"latitude":41.130403},{"id":"378","name":"吉安","pinyin":"jianjx","longitude":114.992913,"latitude":27.113039},{"id":"352","name":"焦作","pinyin":"jiaozuo","longitude":113.241823,"latitude":35.215893},{"id":"442","name":"嘉兴","pinyin":"jiaxing","longitude":120.758543,"latitude":30.753924},{"id":"297","name":"揭阳","pinyin":"jieyang","longitude":116.372831,"latitude":23.549993},{"id":"486","name":"吉林","pinyin":"jilin","longitude":126.549572,"latitude":43.837883},{"id":"28","name":"济南","pinyin":"jinan","longitude":116.994917,"latitude":36.665282},{"id":"394","name":"晋城","pinyin":"jincheng","longitude":112.851768,"latitude":35.49087},{"id":"380","name":"景德镇","pinyin":"jindezhen","longitude":117.17842,"latitude":29.268836},{"id":"336","name":"荆门","pinyin":"jingmen","longitude":112.199265,"latitude":31.035423},{"id":"335","name":"荆州","pinyin":"jingzhou","longitude":112.239741,"latitude":30.335165},{"id":"41","name":"金华","pinyin":"jinhua","longitude":119.647421,"latitude":29.079164},{"id":"40","name":"济宁","pinyin":"jining","longitude":116.587259,"latitude":35.414864},{"id":"398","name":"晋中","pinyin":"jinzhong","longitude":112.752695,"latitude":37.687024},{"id":"383","name":"锦州","pinyin":"jinzhou","longitude":121.127063,"latitude":41.095123},{"id":"1991","name":"吉首","pinyin":"jishou","longitude":109.698349,"latitude":28.26236},{"id":"381","name":"九江","pinyin":"jiujiang","longitude":116.001982,"latitude":29.705096},{"id":"344","name":"鸡西","pinyin":"jixi","longitude":130.969333,"latitude":45.295075},{"id":"2203","name":"济源","pinyin":"jiyuan","longitude":112.601922,"latitude":35.067241},{"id":"345","name":"开封","pinyin":"kaifeng","longitude":114.307624,"latitude":34.797683},{"id":"428","name":"克拉玛依","pinyin":"kelamayi","longitude":84.889207,"latitude":45.579889},{"id":"17","name":"昆明","pinyin":"kunming","longitude":102.722202,"latitude":25.037721},{"id":"359","name":"昆山","pinyin":"kunshan","longitude":120.98115,"latitude":31.384913},{"id":"2354","name":"来宾","pinyin":"laibin","longitude":109.221455,"latitude":23.750306},{"id":"401","name":"莱芜","pinyin":"laiwu","longitude":117.676731,"latitude":36.213691},{"id":"312","name":"廊坊","pinyin":"langfang","longitude":116.706651,"latitude":39.521017},{"id":"42","name":"兰州","pinyin":"lanzhou","longitude":103.834377,"latitude":36.061255},{"id":"253","name":"拉萨","pinyin":"lasa","longitude":91.140856,"latitude":29.645554},{"id":"417","name":"乐山","pinyin":"leshan","longitude":103.765623,"latitude":29.552064},{"id":"43","name":"连云港","pinyin":"lianyungang","longitude":119.221282,"latitude":34.596544},{"id":"411","name":"聊城","pinyin":"liaocheng","longitude":115.985371,"latitude":36.456704},{"id":"388","name":"辽阳","pinyin":"liaoyang","longitude":123.172838,"latitude":41.269493},{"id":"365","name":"辽源","pinyin":"liaoyuan","longitude":125.143532,"latitude":42.887918},{"id":"438","name":"丽江","pinyin":"lijiang","longitude":100.230376,"latitude":26.876774},{"id":"393","name":"临汾","pinyin":"linfen","longitude":111.51888,"latitude":36.088067},{"id":"2182","name":"陵水县","pinyin":"lingshuixian","longitude":110.037525,"latitude":18.506028},{"id":"44","name":"临沂","pinyin":"linyi","longitude":118.347707,"latitude":35.051712},{"id":"2034","name":"丽水","pinyin":"lishui","longitude":119.922817,"latitude":28.467611},{"id":"276","name":"六安","pinyin":"liuan","longitude":116.505693,"latitude":31.745011},{"id":"305","name":"六盘水","pinyin":"liupanshui","longitude":104.830361,"latitude":26.592663},{"id":"254","name":"柳州","pinyin":"liuzhou","longitude":109.415912,"latitude":24.325468},{"id":"282","name":"龙岩","pinyin":"longyan","longitude":117.03403,"latitude":25.100632},{"id":"1998","name":"娄底","pinyin":"loudi","longitude":111.995915,"latitude":27.701541},{"id":"2040","name":"漯河","pinyin":"luohe","longitude":114.016453,"latitude":33.581485},{"id":"70","name":"洛阳","pinyin":"luoyang","longitude":112.454363,"latitude":34.618154},{"id":"415","name":"泸州","pinyin":"luzhou","longitude":105.442263,"latitude":28.871864},{"id":"397","name":"吕梁","pinyin":"lvliang","longitude":111.144231,"latitude":37.518569},{"id":"269","name":"马鞍山","pinyin":"maanshan","longitude":118.504657,"latitude":31.696788},{"id":"288","name":"茂名","pinyin":"maoming","longitude":110.925456,"latitude":21.662999},{"id":"1979","name":"眉山","pinyin":"meishan","longitude":103.848462,"latitude":30.076015},{"id":"290","name":"梅州","pinyin":"meizhou","longitude":116.122469,"latitude":24.288384},{"id":"419","name":"绵阳","pinyin":"mianyang","longitude":104.679114,"latitude":31.46745},{"id":"339","name":"牡丹江","pinyin":"mudanjiang","longitude":129.633169,"latitude":44.551653},{"id":"30","name":"南昌","pinyin":"nanchang","longitude":115.858089,"latitude":28.68316},{"id":"418","name":"南充","pinyin":"nanchong","longitude":106.110595,"latitude":30.837888},{"id":"8","name":"南京","pinyin":"nanjing","longitude":118.796877,"latitude":32.060255},{"id":"45","name":"南宁","pinyin":"nanning","longitude":108.365631,"latitude":22.817642},{"id":"2222","name":"南平","pinyin":"nanping","longitude":118.177711,"latitude":26.641767},{"id":"22","name":"南通","pinyin":"nantong","longitude":120.894324,"latitude":31.979997},{"id":"1977","name":"南阳","pinyin":"nanyang","longitude":112.528345,"latitude":32.990615},{"id":"24","name":"宁波","pinyin":"ningbo","longitude":121.54399,"latitude":29.868336},{"id":"283","name":"宁德","pinyin":"ningde","longitude":119.526287,"latitude":26.666291},{"id":"72","name":"盘锦","pinyin":"panjin","longitude":122.070714,"latitude":41.119997},{"id":"300","name":"番禺","pinyin":"panyu","longitude":113.384123,"latitude":22.936346},{"id":"413","name":"攀枝花","pinyin":"panzhihua","longitude":101.718637,"latitude":26.582347},{"id":"2042","name":"平顶山","pinyin":"pingdingshan","longitude":113.192814,"latitude":33.76619},{"id":"382","name":"萍乡","pinyin":"pingxiang","longitude":113.854676,"latitude":27.622865},{"id":"433","name":"普洱","pinyin":"puer","longitude":100.970152,"latitude":22.777765},{"id":"1978","name":"莆田","pinyin":"putian","longitude":119.007777,"latitude":25.454085},{"id":"353","name":"濮阳","pinyin":"puyang","longitude":115.029331,"latitude":35.762141},{"id":"319","name":"迁安","pinyin":"qianan","longitude":118.701144,"latitude":39.999175},{"id":"2045","name":"黔东南","pinyin":"qiandongnan","longitude":107.982825,"latitude":26.583548},{"id":"2076","name":"潜江","pinyin":"qianjiang","longitude":112.900165,"latitude":30.401888},{"id":"2161","name":"黔西南","pinyin":"qianxinan","longitude":104.906397,"latitude":25.087823},{"id":"12","name":"青岛","pinyin":"qingdao","longitude":120.382504,"latitude":36.06722},{"id":"292","name":"清远","pinyin":"qingyuan","longitude":113.056042,"latitude":23.681801},{"id":"313","name":"秦皇岛","pinyin":"qinhuangdao","longitude":119.600492,"latitude":39.935377},{"id":"2029","name":"钦州","pinyin":"qinzhou","longitude":108.654371,"latitude":21.980968},{"id":"2183","name":"琼海市","pinyin":"qionghaishi","longitude":110.474671,"latitude":19.258404},{"id":"2184","name":"琼中县","pinyin":"qiongzhongxian","longitude":109.838384,"latitude":19.033369},{"id":"258","name":"齐齐哈尔","pinyin":"qiqihaer","longitude":123.918186,"latitude":47.354348},{"id":"340","name":"七台河","pinyin":"qitaihe","longitude":131.004915,"latitude":45.771975},{"id":"55","name":"泉州","pinyin":"quanzhou","longitude":118.586812,"latitude":24.907574},{"id":"407","name":"曲阜","pinyin":"qufu","longitude":116.986532,"latitude":35.581137},{"id":"436","name":"曲靖","pinyin":"qujing","longitude":103.796167,"latitude":25.49001},{"id":"444","name":"衢州","pinyin":"quzhou","longitude":118.874375,"latitude":28.93581},{"id":"306","name":"仁怀","pinyin":"renhuai","longitude":106.40115,"latitude":27.791979},{"id":"402","name":"日照","pinyin":"rizhao","longitude":119.526888,"latitude":35.416377},{"id":"318","name":"三河","pinyin":"sanhe","longitude":117.078295,"latitude":39.982718},{"id":"2124","name":"三门峡","pinyin":"sanmenxia","longitude":111.200144,"latitude":34.772301},{"id":"2316","name":"三明","pinyin":"sanming","longitude":117.638716,"latitude":26.263465},{"id":"322","name":"三亚","pinyin":"sanya","longitude":109.511909,"latitude":18.252847},{"id":"2","name":"上海","pinyin":"shanghai","longitude":121.448364,"latitude":31.195029},{"id":"350","name":"商丘","pinyin":"shangqiu","longitude":115.656394,"latitude":34.414183},{"id":"379","name":"上饶","pinyin":"shangrao","longitude":117.943433,"latitude":28.454863},{"id":"245","name":"汕头","pinyin":"shantou","longitude":116.681943,"latitude":23.353362},{"id":"296","name":"汕尾","pinyin":"shanwei","longitude":115.375279,"latitude":22.786211},{"id":"291","name":"韶关","pinyin":"shaoguan","longitude":113.597522,"latitude":24.810403},{"id":"440","name":"绍兴","pinyin":"shaoxing","longitude":120.586109,"latitude":29.995762},{"id":"2104","name":"邵阳","pinyin":"shaoyang","longitude":111.467791,"latitude":27.238779},{"id":"23","name":"沈阳","pinyin":"shenyang","longitude":123.43147,"latitude":41.80572},{"id":"4","name":"深圳","pinyin":"shenzhen","longitude":114.057868,"latitude":22.543099},{"id":"2464","name":"石河子","pinyin":"shihezi","longitude":86.080497,"latitude":44.306119},{"id":"32","name":"石家庄","pinyin":"shijiazhuang","longitude":114.51486,"latitude":38.042307},{"id":"337","name":"十堰","pinyin":"shiyan","longitude":110.788811,"latitude":32.65059},{"id":"2168","name":"石嘴山","pinyin":"shizuishan","longitude":106.383036,"latitude":38.984346},{"id":"408","name":"寿光","pinyin":"shouguang","longitude":118.790652,"latitude":36.85548},{"id":"301","name":"顺德","pinyin":"shunde","longitude":113.293359,"latitude":22.80524},{"id":"399","name":"朔州","pinyin":"shuozhou","longitude":112.432714,"latitude":39.331149},{"id":"376","name":"四平","pinyin":"siping","longitude":124.350352,"latitude":43.166937},{"id":"2362","name":"绥化","pinyin":"suihua","longitude":126.980129,"latitude":46.63666},{"id":"2205","name":"遂宁","pinyin":"suining","longitude":105.59293,"latitude":30.532796},{"id":"2065","name":"随州","pinyin":"suizhou","longitude":113.382544,"latitude":31.690116},{"id":"357","name":"宿迁","pinyin":"suqian","longitude":118.275497,"latitude":33.961994},{"id":"26","name":"苏州","pinyin":"suzhou","longitude":120.585316,"latitude":31.298886},{"id":"2447","name":"宿州","pinyin":"suzhoushi","longitude":116.963905,"latitude":33.646105},{"id":"400","name":"泰安","pinyin":"taian","longitude":117.087614,"latitude":36.200252},{"id":"36","name":"台北","pinyin":"taibei","longitude":121.559834,"latitude":25.091075},{"id":"46","name":"太原","pinyin":"taiyuan","longitude":112.550619,"latitude":37.870662},{"id":"356","name":"泰州","pinyin":"taizhousd","longitude":119.923116,"latitude":32.455778},{"id":"439","name":"台州","pinyin":"taizhouzj","longitude":121.420757,"latitude":28.656386},{"id":"426","name":"塘沽","pinyin":"tanggu","longitude":117.231445,"latitude":39.108652},{"id":"247","name":"唐山","pinyin":"tangshan","longitude":118.180407,"latitude":39.630476},{"id":"404","name":"滕州","pinyin":"tengzhou","longitude":117.164388,"latitude":35.084021},{"id":"7","name":"天津","pinyin":"tianjin","longitude":117.200983,"latitude":39.084158},{"id":"308","name":"天水","pinyin":"tianshui","longitude":105.724947,"latitude":34.580862},{"id":"384","name":"铁岭","pinyin":"tieling","longitude":123.841819,"latitude":42.286624},{"id":"367","name":"通化","pinyin":"tonghua","longitude":125.939697,"latitude":41.728401},{"id":"2374","name":"通辽","pinyin":"tongliao","longitude":122.240463,"latitude":43.652531},{"id":"274","name":"铜陵","pinyin":"tongling","longitude":117.810841,"latitude":30.94453},{"id":"450","name":"桐乡","pinyin":"tongxiang","longitude":120.565102,"latitude":30.63007},{"id":"2185","name":"屯昌县","pinyin":"tunchang","longitude":110.103415,"latitude":19.351746},{"id":"2187","name":"万宁市","pinyin":"wanningshi","longitude":110.391116,"latitude":18.795102},{"id":"48","name":"潍坊","pinyin":"weifang","longitude":119.16193,"latitude":36.706691},{"id":"47","name":"威海","pinyin":"weihai","longitude":122.12042,"latitude":37.513068},{"id":"423","name":"渭南","pinyin":"weinan","longitude":109.509786,"latitude":34.499995},{"id":"2186","name":"文昌市","pinyin":"wenchang","longitude":110.797648,"latitude":19.54338},{"id":"409","name":"文登","pinyin":"wendeng","longitude":122.058128,"latitude":37.193913},{"id":"62","name":"温州","pinyin":"wenzhou","longitude":120.699367,"latitude":27.994267},{"id":"2131","name":"乌海","pinyin":"wuhai","longitude":106.794226,"latitude":39.654991},{"id":"9","name":"武汉","pinyin":"wuhan","longitude":114.305357,"latitude":30.593087},{"id":"49","name":"芜湖","pinyin":"wuhu","longitude":118.385156,"latitude":31.33879},{"id":"1988","name":"乌兰察布","pinyin":"wulanchabu","longitude":113.135332,"latitude":40.996859},{"id":"259","name":"乌鲁木齐","pinyin":"wulumuqi","longitude":87.617298,"latitude":43.825666},{"id":"2467","name":"武威","pinyin":"wuwei","longitude":102.638014,"latitude":37.928163},{"id":"27","name":"无锡","pinyin":"wuxi","longitude":120.303027,"latitude":31.566145},{"id":"284","name":"武夷山","pinyin":"wuyishan","longitude":118.03531,"latitude":27.756648},{"id":"2302","name":"吴忠","pinyin":"wuzhong","longitude":106.19823,"latitude":37.997476},{"id":"29","name":"厦门","pinyin":"xiamen","longitude":118.08942,"latitude":24.479836},{"id":"3","name":"西安","pinyin":"xian","longitude":108.944269,"latitude":34.264987},{"id":"34","name":"香港","pinyin":"xianggang","longitude":114.109497,"latitude":22.396428},{"id":"50","name":"湘潭","pinyin":"xiangtan","longitude":112.944049,"latitude":27.829738},{"id":"332","name":"襄阳","pinyin":"xiangyang","longitude":112.122415,"latitude":32.008986},{"id":"2032","name":"咸宁","pinyin":"xianning","longitude":114.322578,"latitude":29.841517},{"id":"2075","name":"仙桃","pinyin":"xiantao","longitude":113.454572,"latitude":30.362604},{"id":"421","name":"咸阳","pinyin":"xianyang","longitude":108.709003,"latitude":34.329563},{"id":"2198","name":"孝感","pinyin":"xiaogan","longitude":113.916853,"latitude":30.924612},{"id":"1992","name":"西昌","pinyin":"xichang","longitude":102.264443,"latitude":27.89442},{"id":"2337","name":"兴安盟","pinyin":"xinganmeng","longitude":122.066999,"latitude":46.077501},{"id":"2146","name":"邢台","pinyin":"xingtai","longitude":114.504855,"latitude":37.070435},{"id":"251","name":"西宁","pinyin":"xining","longitude":101.778208,"latitude":36.617085},{"id":"346","name":"新乡","pinyin":"xinxiang","longitude":113.9268,"latitude":35.303004},{"id":"354","name":"信阳","pinyin":"xinyang","longitude":114.068871,"latitude":32.123233},{"id":"2021","name":"新余","pinyin":"xinyu","longitude":114.917238,"latitude":27.818274},{"id":"351","name":"新郑","pinyin":"xinzheng","longitude":113.740589,"latitude":34.395568},{"id":"2080","name":"忻州","pinyin":"xinzhou","longitude":112.734153,"latitude":38.416747},{"id":"2062","name":"西双版纳","pinyin":"xishuangbanna","longitude":100.797353,"latitude":22.008188},{"id":"275","name":"宣城","pinyin":"xuancheng","longitude":118.758816,"latitude":30.940718},{"id":"2038","name":"许昌","pinyin":"xuchang","longitude":113.85264,"latitude":34.035399},{"id":"51","name":"徐州","pinyin":"xuzhou","longitude":117.284067,"latitude":34.20475},{"id":"2096","name":"雅安","pinyin":"yaan","longitude":103.013347,"latitude":29.980463},{"id":"424","name":"延安","pinyin":"yanan","longitude":109.489635,"latitude":36.585424},{"id":"2204","name":"延边州","pinyin":"yanbianzhou","longitude":129.509126,"latitude":42.891258},{"id":"52","name":"盐城","pinyin":"yancheng","longitude":120.163561,"latitude":33.347378},{"id":"298","name":"阳江","pinyin":"yangjiang","longitude":111.982207,"latitude":21.857938},{"id":"2142","name":"阳泉","pinyin":"yangquan","longitude":113.58041,"latitude":37.856582},{"id":"53","name":"扬州","pinyin":"yangzhou","longitude":119.412966,"latitude":32.39421},{"id":"371","name":"延吉","pinyin":"yanji","longitude":129.513914,"latitude":42.906959},{"id":"18","name":"烟台","pinyin":"yantai","longitude":121.447926,"latitude":37.463819},{"id":"406","name":"兖州","pinyin":"yanzhou","longitude":116.783834,"latitude":35.553144},{"id":"414","name":"宜宾","pinyin":"yibin","longitude":104.643373,"latitude":28.751878},{"id":"331","name":"宜昌","pinyin":"yichang","longitude":111.286471,"latitude":30.691967},{"id":"342","name":"伊春","pinyin":"yichun","longitude":128.840661,"latitude":47.727542},{"id":"2019","name":"宜春","pinyin":"yichun","longitude":114.416606,"latitude":27.815619},{"id":"2335","name":"伊犁","pinyin":"yili","longitude":81.324254,"latitude":43.916754},{"id":"56","name":"银川","pinyin":"yinchuan","longitude":106.230909,"latitude":38.487194},{"id":"386","name":"营口","pinyin":"yingkou","longitude":122.234996,"latitude":40.667061},{"id":"446","name":"义乌","pinyin":"yiwu","longitude":120.075058,"latitude":29.306841},{"id":"360","name":"宜兴","pinyin":"yixing","longitude":119.823363,"latitude":31.340527},{"id":"329","name":"益阳","pinyin":"yiyang","longitude":112.355582,"latitude":28.553883},{"id":"324","name":"岳阳","pinyin":"yueyang","longitude":113.128959,"latitude":29.357104},{"id":"311","name":"玉林","pinyin":"yulingx","longitude":110.164756,"latitude":22.636379},{"id":"425","name":"榆林","pinyin":"yulinsx","longitude":109.735209,"latitude":38.285526},{"id":"395","name":"运城","pinyin":"yuncheng","longitude":111.007324,"latitude":35.026372},{"id":"1976","name":"云浮","pinyin":"yunfu","longitude":112.044491,"latitude":22.915094},{"id":"435","name":"玉溪","pinyin":"yuxi","longitude":102.546543,"latitude":24.352036},{"id":"405","name":"枣庄","pinyin":"zaozhuang","longitude":117.323725,"latitude":34.810488},{"id":"299","name":"增城","pinyin":"zengcheng","longitude":113.837658,"latitude":23.289339},{"id":"362","name":"张家港","pinyin":"zhangjiagang","longitude":120.555821,"latitude":31.875428},{"id":"330","name":"张家界","pinyin":"zhangjiajie","longitude":110.479221,"latitude":29.116525},{"id":"1989","name":"张家口","pinyin":"zhangjiakou","longitude":114.886037,"latitude":40.767446},{"id":"281","name":"漳州","pinyin":"zhangzhou","longitude":117.647363,"latitude":24.513321},{"id":"261","name":"湛江","pinyin":"zhanjiang","longitude":110.359255,"latitude":21.270764},{"id":"286","name":"肇庆","pinyin":"zhaoqing","longitude":112.465091,"latitude":23.047192},{"id":"2344","name":"朝阳","pinyin":"zhaoyang","longitude":120.450367,"latitude":41.573726},{"id":"25","name":"郑州","pinyin":"zhengzhou","longitude":113.624899,"latitude":34.746985},{"id":"355","name":"镇江","pinyin":"zhenjiang","longitude":119.45722,"latitude":32.199147},{"id":"252","name":"中山","pinyin":"zhongshan","longitude":113.392795,"latitude":22.516686},{"id":"2172","name":"中卫","pinyin":"zhongwei","longitude":105.173837,"latitude":37.51679},{"id":"1993","name":"周口","pinyin":"zhoukou","longitude":114.657659,"latitude":33.618757},{"id":"441","name":"舟山","pinyin":"zhoushan","longitude":122.206604,"latitude":29.985451},{"id":"63","name":"珠海","pinyin":"zhuhai","longitude":113.576726,"latitude":22.270715},{"id":"2055","name":"驻马店","pinyin":"zhumadian","longitude":114.022298,"latitude":33.011385},{"id":"317","name":"涿州","pinyin":"zhuozhou","longitude":115.974365,"latitude":39.485284},{"id":"250","name":"株洲","pinyin":"zhuzhou","longitude":113.133775,"latitude":27.827827},{"id":"31","name":"淄博","pinyin":"zibo","longitude":118.055007,"latitude":36.813497},{"id":"2108","name":"自贡","pinyin":"zigong","longitude":104.77826,"latitude":29.33903},{"id":"2206","name":"资阳","pinyin":"ziyang","longitude":104.627636,"latitude":30.128892},{"id":"302","name":"遵义","pinyin":"zunyi","longitude":106.927389,"latitude":27.725654}]}


